APRIZESAT 2             
1 28366U 04025A   26183.73154229  .00000271  00000+0  97092-4 0  9999
2 28366  98.1028 348.8330 0105078 202.5060 157.1502 14.38042882153875
SAUDICOMSAT 1           
1 28369U 04025D   26183.82778374  .00000453  00000+0  11491-3 0  9995
2 28369  98.5771 194.3812 0031612 337.7733  22.2091 14.55486483166402
SAUDICOMSAT 2           
1 28370U 04025E   26183.51356244  .00000274  00000+0  82103-4 0  9991
2 28370  98.6639 196.1932 0054779 212.2838 147.4998 14.49989407162323
APRIZESAT 1             
1 28372U 04025G   26182.97492777  .00000299  00000+0  85480-4 0  9992
2 28372  98.6303 194.1029 0045705 109.8102 250.8029 14.51785626164058
NANOSAT-1               
1 28493U 04049B   26183.85239667  .00001265  00000+0  17379-3 0  9992
2 28493  98.2297 320.8981 0002941 229.9884 130.1070 14.80191745157762
SAUDICOMSAT 7           
1 31119U 07012C   26183.87813537  .00000597  00000+0  11565-3 0  9998
2 31119  98.3787 158.3316 0056390 146.1743 214.3078 14.66125867 24732
SAUDICOMSAT 6           
1 31121U 07012E   26183.82529306  .00000574  00000+0  11958-3 0  9995
2 31121  98.4106 151.6335 0070389 278.3440  80.9784 14.62575684 22476
SAUDICOMSAT 5           
1 31124U 07012H   26183.82962821  .00000890  00000+0  16102-3 0  9998
2 31124  98.3498 159.0258 0048704  76.7802 283.8828 14.68178723 25897
SAUDICOMSAT 3           
1 31125U 07012J   26183.89907446  .00000973  00000+0  16649-3 0  9996
2 31125  98.3153 159.6438 0039211   4.4077 355.7467 14.70733373 27135
SAUDICOMSAT 4           
1 31127U 07012L   26183.86884153  .00000467  00000+0  95569-4 0  9991
2 31127  98.3992 156.7598 0062705 208.3975 151.3805 14.64526433 23580
APRIZESAT 4             
1 35684U 09041D   26183.15936325  .00000764  00000+0  97714-4 0  9992
2 35684  98.1409 258.7781 0041886 273.0980  86.5440 14.83899214913585
APRIZESAT 3             
1 35686U 09041F   26183.68055769  .00001201  00000+0  10820-3 0  9995
2 35686  98.2079 337.6483 0061915  16.9430 343.3839 14.96282760918695
S-NET D                 
1 43186U 18014G   26183.70155815  .00005721  00000+0  29427-3 0  9999
2 43186  97.5348  88.3957 0007207 337.1693  22.9219 15.16818309461118
S-NET B                 
1 43187U 18014H   26183.71331412  .00005594  00000+0  28807-3 0  9999
2 43187  97.5353  88.3942 0007693 331.2014  28.8793 15.16789173461118
S-NET A                 
1 43188U 18014J   26183.70035021  .00005827  00000+0  29960-3 0  9996
2 43188  97.5363  88.5933 0007586 332.0948  27.9877 15.16826895461114
S-NET C                 
1 43189U 18014K   26183.71726963  .00005404  00000+0  27839-3 0  9994
2 43189  97.5383  88.6871 0008719 322.3116  37.7505 15.16780921459660
SALSAT                  
1 46495U 20068K   26183.25417132  .00008637  00000+0  29987-3 0  9990
2 46495  97.8847 187.2381 0008038 243.7769 116.2645 15.30013367317667
OOV-CUBE (TUBSAT-30)    
1 60240U 24128F   26183.69186645  .00002197  00000+0  17578-3 0  9993
2 60240  61.9926 171.5059 0042718 137.2336 223.2093 15.02831807108445
LPNTSAT-001 (IOD-1)     
1 68408U 26065A   26182.63918262  .00002801  00000+0  13827-3 0  9995
2 68408  97.3999  62.8427 0015215 318.8569  41.1518 15.18610529 14459
